{
"type": "FeatureCollection",
"name": "pripojenost_kanalizacie",
"xy_coordinate_resolution": 1e-05,
"features": [
{ "type": "Feature", "properties": { "NM2": "Bratislava", "NM3": "Bratislava", "pripojenost_kanalizacie": 1.0 }, "geometry": { "type": "Polygon", "coordinates": [ [ [ 17.0931, 48.09145 ], [ 17.09128, 48.09059 ], [ 17.0896, 48.09226 ], [ 17.07639, 48.08623 ], [ 17.07452, 48.08594 ], [ 17.0731, 48.0834 ], [ 17.07481, 48.08267 ], [ 17.07158, 48.08108 ], [ 17.07887, 48.07826 ], [ 17.07219, 48.07047 ], [ 17.08675, 48.06538 ], [ 17.07545, 48.05909 ], [ 17.07167, 48.05626 ], [ 17.07013, 48.05703 ], [ 17.06821, 48.05542 ], [ 17.07396, 48.05289 ], [ 17.08441, 48.05031 ], [ 17.08565, 48.0493 ], [ 17.08774, 48.0457 ], [ 17.08115, 48.04074 ], [ 17.0742, 48.03637 ], [ 17.07503, 48.0358 ], [ 17.06738, 48.03146 ], [ 17.07788, 48.02647 ], [ 17.08031, 48.02591 ], [ 17.08479, 48.02386 ], [ 17.08812, 48.02178 ], [ 17.08982, 48.01981 ], [ 17.11001, 48.03125 ], [ 17.11498, 48.02964 ], [ 17.11733, 48.02828 ], [ 17.1218, 48.02433 ], [ 17.12668, 48.02095 ], [ 17.13079, 48.023 ], [ 17.13296, 48.02241 ], [ 17.13633, 48.02294 ], [ 17.13739, 48.0226 ], [ 17.14232, 48.01955 ], [ 17.14377, 48.02021 ], [ 17.14836, 48.01496 ], [ 17.15004, 48.01358 ], [ 17.16073, 48.00668 ], [ 17.16284, 48.00831 ], [ 17.17316, 48.01226 ], [ 17.17916, 48.01368 ], [ 17.19311, 48.01823 ], [ 17.19436, 48.01843 ], [ 17.1983, 48.01771 ], [ 17.19899, 48.01834 ], [ 17.19934, 48.01948 ], [ 17.20098, 48.02002 ], [ 17.20284, 48.02 ], [ 17.20707, 48.0191 ], [ 17.21409, 48.01912 ], [ 17.22069, 48.01649 ], [ 17.22658, 48.01625 ], [ 17.23263, 48.018 ], [ 17.23604, 48.01859 ], [ 17.2404, 48.02059 ], [ 17.24026, 48.0216 ], [ 17.24172, 48.02249 ], [ 17.23725, 48.02611 ], [ 17.23191, 48.0296 ], [ 17.22487, 48.0381 ], [ 17.22307, 48.03959 ], [ 17.21671, 48.0423 ], [ 17.21015, 48.04416 ], [ 17.20513, 48.04594 ], [ 17.19843, 48.04899 ], [ 17.19252, 48.05221 ], [ 17.18733, 48.05382 ], [ 17.19438, 48.06392 ], [ 17.20204, 48.06169 ], [ 17.20075, 48.0654 ], [ 17.20165, 48.0671 ], [ 17.20068, 48.06835 ], [ 17.20203, 48.07008 ], [ 17.20078, 48.07057 ], [ 17.20428, 48.07545 ], [ 17.20729, 48.07602 ], [ 17.20901, 48.07668 ], [ 17.21074, 48.07807 ], [ 17.21183, 48.07951 ], [ 17.21211, 48.08076 ], [ 17.21132, 48.08268 ], [ 17.20948, 48.08435 ], [ 17.20667, 48.08576 ], [ 17.213, 48.09278 ], [ 17.2137, 48.09222 ], [ 17.21505, 48.09273 ], [ 17.21485, 48.09346 ], [ 17.21596, 48.0946 ], [ 17.21677, 48.09444 ], [ 17.2177, 48.09568 ], [ 17.21803, 48.09772 ], [ 17.21629, 48.09966 ], [ 17.21748, 48.10101 ], [ 17.21663, 48.10234 ], [ 17.21727, 48.10352 ], [ 17.21815, 48.10383 ], [ 17.22034, 48.10379 ], [ 17.22609, 48.10666 ], [ 17.22985, 48.10808 ], [ 17.23601, 48.1116 ], [ 17.23914, 48.11146 ], [ 17.24057, 48.11228 ], [ 17.24277, 48.11202 ], [ 17.24426, 48.11145 ], [ 17.24548, 48.11228 ], [ 17.24879, 48.11027 ], [ 17.25097, 48.10999 ], [ 17.25398, 48.10915 ], [ 17.25512, 48.10819 ], [ 17.2585, 48.10771 ], [ 17.26214, 48.10677 ], [ 17.26356, 48.10603 ], [ 17.26486, 48.10448 ], [ 17.26656, 48.10348 ], [ 17.27611, 48.10014 ], [ 17.28314, 48.11022 ], [ 17.28325, 48.11279 ], [ 17.28449, 48.1167 ], [ 17.2818, 48.11663 ], [ 17.27929, 48.11697 ], [ 17.28272, 48.1208 ], [ 17.28006, 48.12343 ], [ 17.27468, 48.12269 ], [ 17.26924, 48.12359 ], [ 17.26495, 48.12386 ], [ 17.26253, 48.12941 ], [ 17.25974, 48.13449 ], [ 17.25863, 48.13573 ], [ 17.25674, 48.13644 ], [ 17.25345, 48.13693 ], [ 17.25352, 48.13771 ], [ 17.24183, 48.13894 ], [ 17.24029, 48.1425 ], [ 17.23845, 48.14408 ], [ 17.2374, 48.1442 ], [ 17.23751, 48.14588 ], [ 17.23894, 48.14847 ], [ 17.23764, 48.14978 ], [ 17.23866, 48.15116 ], [ 17.23834, 48.1533 ], [ 17.23658, 48.15379 ], [ 17.23356, 48.15632 ], [ 17.2352, 48.15737 ], [ 17.23513, 48.15797 ], [ 17.23417, 48.1585 ], [ 17.23457, 48.15931 ], [ 17.23424, 48.1621 ], [ 17.23361, 48.16289 ], [ 17.23174, 48.16315 ], [ 17.23209, 48.16402 ], [ 17.23172, 48.16442 ], [ 17.23105, 48.16453 ], [ 17.22857, 48.16388 ], [ 17.22714, 48.16402 ], [ 17.22823, 48.16529 ], [ 17.22904, 48.16717 ], [ 17.23125, 48.16737 ], [ 17.23255, 48.16708 ], [ 17.23317, 48.16663 ], [ 17.23571, 48.16662 ], [ 17.23682, 48.1673 ], [ 17.23725, 48.16816 ], [ 17.23635, 48.16914 ], [ 17.23418, 48.16987 ], [ 17.23088, 48.16937 ], [ 17.22956, 48.16983 ], [ 17.22863, 48.171 ], [ 17.22618, 48.17244 ], [ 17.2242, 48.17414 ], [ 17.22322, 48.17602 ], [ 17.21788, 48.18185 ], [ 17.21844, 48.18235 ], [ 17.22005, 48.1822 ], [ 17.22101, 48.18253 ], [ 17.22243, 48.18474 ], [ 17.22509, 48.18641 ], [ 17.22411, 48.19339 ], [ 17.22546, 48.19462 ], [ 17.22625, 48.19484 ], [ 17.22854, 48.19477 ], [ 17.22913, 48.19773 ], [ 17.23156, 48.1985 ], [ 17.22711, 48.20407 ], [ 17.22225, 48.20668 ], [ 17.2162, 48.2132 ], [ 17.20922, 48.2185 ], [ 17.19688, 48.22518 ], [ 17.19385, 48.22711 ], [ 17.19153, 48.22911 ], [ 17.18857, 48.23074 ], [ 17.18656, 48.23139 ], [ 17.18307, 48.23355 ], [ 17.18118, 48.23382 ], [ 17.1784, 48.23553 ], [ 17.17587, 48.23585 ], [ 17.17422, 48.23684 ], [ 17.17298, 48.23679 ], [ 17.17102, 48.23736 ], [ 17.16792, 48.23896 ], [ 17.16525, 48.24164 ], [ 17.16533, 48.24313 ], [ 17.16455, 48.24457 ], [ 17.16161, 48.24398 ], [ 17.15922, 48.24248 ], [ 17.15811, 48.24062 ], [ 17.15643, 48.23935 ], [ 17.1533, 48.2384 ], [ 17.14769, 48.23921 ], [ 17.14667, 48.23991 ], [ 17.14542, 48.2401 ], [ 17.14491, 48.24073 ], [ 17.14471, 48.24254 ], [ 17.14416, 48.24326 ], [ 17.14308, 48.24378 ], [ 17.14161, 48.24344 ], [ 17.14055, 48.24267 ], [ 17.13894, 48.24209 ], [ 17.1364, 48.2423 ], [ 17.13419, 48.24286 ], [ 17.13552, 48.24362 ], [ 17.13727, 48.24754 ], [ 17.13694, 48.2476 ], [ 17.12923, 48.24799 ], [ 17.12612, 48.24669 ], [ 17.12414, 48.24635 ], [ 17.12222, 48.24466 ], [ 17.12046, 48.24439 ], [ 17.11869, 48.24452 ], [ 17.11395, 48.24561 ], [ 17.11108, 48.24721 ], [ 17.10557, 48.24822 ], [ 17.1011, 48.24862 ], [ 17.09932, 48.2494 ], [ 17.09749, 48.24955 ], [ 17.09669, 48.24922 ], [ 17.09524, 48.24925 ], [ 17.09368, 48.24724 ], [ 17.09101, 48.24672 ], [ 17.08876, 48.24724 ], [ 17.08784, 48.2478 ], [ 17.0862, 48.24793 ], [ 17.08576, 48.24851 ], [ 17.08437, 48.2492 ], [ 17.08138, 48.24987 ], [ 17.08088, 48.24967 ], [ 17.08192, 48.24868 ], [ 17.08252, 48.24743 ], [ 17.08229, 48.24699 ], [ 17.08144, 48.24701 ], [ 17.08175, 48.24631 ], [ 17.08152, 48.24385 ], [ 17.08078, 48.24286 ], [ 17.07905, 48.24259 ], [ 17.07797, 48.24206 ], [ 17.07716, 48.24046 ], [ 17.07633, 48.24013 ], [ 17.07604, 48.23884 ], [ 17.07663, 48.23594 ], [ 17.07374, 48.23566 ], [ 17.07154, 48.23672 ], [ 17.07079, 48.23668 ], [ 17.06958, 48.23746 ], [ 17.06784, 48.23962 ], [ 17.06818, 48.2413 ], [ 17.06732, 48.24218 ], [ 17.06557, 48.24269 ], [ 17.06378, 48.2425 ], [ 17.06107, 48.24285 ], [ 17.05983, 48.24269 ], [ 17.05774, 48.24386 ], [ 17.0572, 48.24369 ], [ 17.05321, 48.24469 ], [ 17.04898, 48.24498 ], [ 17.04713, 48.24553 ], [ 17.0459, 48.24695 ], [ 17.04441, 48.25038 ], [ 17.04568, 48.25119 ], [ 17.04416, 48.25209 ], [ 17.04271, 48.25111 ], [ 17.04029, 48.25079 ], [ 17.0365, 48.25082 ], [ 17.03485, 48.25056 ], [ 17.03421, 48.25116 ], [ 17.02943, 48.2502 ], [ 17.02884, 48.25101 ], [ 17.02506, 48.2506 ], [ 17.02391, 48.25014 ], [ 17.0226, 48.25038 ], [ 17.02074, 48.25015 ], [ 17.02015, 48.24908 ], [ 17.01852, 48.24873 ], [ 17.01834, 48.24808 ], [ 17.00382, 48.25092 ], [ 17.00126, 48.25083 ], [ 16.99785, 48.25125 ], [ 16.99817, 48.25203 ], [ 16.99593, 48.25263 ], [ 16.9939, 48.25265 ], [ 16.99395, 48.25237 ], [ 16.99165, 48.25206 ], [ 16.98951, 48.25203 ], [ 16.98934, 48.25254 ], [ 16.98719, 48.25228 ], [ 16.98652, 48.25344 ], [ 16.98565, 48.25313 ], [ 16.98507, 48.25339 ], [ 16.98345, 48.25518 ], [ 16.97092, 48.26318 ], [ 16.96966, 48.26367 ], [ 16.96787, 48.26352 ], [ 16.95849, 48.26509 ], [ 16.9578, 48.26339 ], [ 16.95723, 48.26351 ], [ 16.95721, 48.26282 ], [ 16.95564, 48.26075 ], [ 16.95208, 48.2577 ], [ 16.9514, 48.25668 ], [ 16.94975, 48.25227 ], [ 16.94973, 48.24878 ], [ 16.94849, 48.24601 ], [ 16.94823, 48.24393 ], [ 16.94668, 48.24169 ], [ 16.94609, 48.23591 ], [ 16.94705, 48.23391 ], [ 16.949, 48.23191 ], [ 16.95498, 48.22848 ], [ 16.95751, 48.22653 ], [ 16.96043, 48.22322 ], [ 16.96174, 48.22085 ], [ 16.96215, 48.21904 ], [ 16.9619, 48.21539 ], [ 16.96243, 48.21359 ], [ 16.96519, 48.21025 ], [ 16.96702, 48.2053 ], [ 16.96976, 48.20171 ], [ 16.9718, 48.19579 ], [ 16.97543, 48.19137 ], [ 16.9764, 48.18939 ], [ 16.9765, 48.18572 ], [ 16.9774, 48.18199 ], [ 16.97545, 48.17663 ], [ 16.97619, 48.1718 ], [ 16.9843, 48.16814 ], [ 16.99199, 48.16258 ], [ 16.99594, 48.16023 ], [ 17.01323, 48.15298 ], [ 17.01759, 48.14939 ], [ 17.02221, 48.14408 ], [ 17.02479, 48.14235 ], [ 17.02785, 48.14103 ], [ 17.03245, 48.13998 ], [ 17.03791, 48.13988 ], [ 17.05715, 48.14379 ], [ 17.05732, 48.1418 ], [ 17.05941, 48.14125 ], [ 17.05932, 48.14038 ], [ 17.0601, 48.13998 ], [ 17.06122, 48.13824 ], [ 17.0616, 48.13602 ], [ 17.0601, 48.13578 ], [ 17.06138, 48.13349 ], [ 17.06192, 48.13347 ], [ 17.06258, 48.1318 ], [ 17.06552, 48.12937 ], [ 17.06404, 48.12877 ], [ 17.06426, 48.12814 ], [ 17.06512, 48.12798 ], [ 17.06624, 48.12822 ], [ 17.06758, 48.12746 ], [ 17.06783, 48.12707 ], [ 17.0671, 48.12645 ], [ 17.0688, 48.12414 ], [ 17.06793, 48.12356 ], [ 17.06675, 48.12372 ], [ 17.06534, 48.12328 ], [ 17.06343, 48.12354 ], [ 17.06233, 48.12326 ], [ 17.0626, 48.12172 ], [ 17.0647, 48.12046 ], [ 17.06617, 48.11902 ], [ 17.06793, 48.1182 ], [ 17.06796, 48.11667 ], [ 17.0686, 48.11615 ], [ 17.07278, 48.11454 ], [ 17.07434, 48.11453 ], [ 17.07703, 48.11513 ], [ 17.07283, 48.11032 ], [ 17.07904, 48.10792 ], [ 17.07738, 48.10598 ], [ 17.0833, 48.10255 ], [ 17.08368, 48.10302 ], [ 17.09266, 48.09966 ], [ 17.08773, 48.09658 ], [ 17.0931, 48.09145 ] ] ] } },
{ "type": "Feature", "properties": { "NM2": "Košice", "NM3": "Košice", "pripojenost_kanalizacie": 0.98 }, "geometry": { "type": "Polygon", "coordinates": [ [ [ 21.15247, 48.65674 ], [ 21.14928, 48.65805 ], [ 21.14784, 48.65919 ], [ 21.14751, 48.66154 ], [ 21.14817, 48.66391 ], [ 21.14865, 48.66491 ], [ 21.15059, 48.66652 ], [ 21.15077, 48.66834 ], [ 21.12159, 48.6551 ], [ 21.12244, 48.65511 ], [ 21.12442, 48.65402 ], [ 21.1249, 48.65172 ], [ 21.12477, 48.64901 ], [ 21.12779, 48.6438 ], [ 21.12957, 48.63788 ], [ 21.12706, 48.63229 ], [ 21.12339, 48.62856 ], [ 21.12266, 48.62825 ], [ 21.12125, 48.6259 ], [ 21.12073, 48.62334 ], [ 21.12142, 48.61987 ], [ 21.14565, 48.621 ], [ 21.16129, 48.61975 ], [ 21.16539, 48.61975 ], [ 21.16613, 48.6182 ], [ 21.16746, 48.61725 ], [ 21.17012, 48.61728 ], [ 21.16992, 48.61663 ], [ 21.17012, 48.61622 ], [ 21.17068, 48.61612 ], [ 21.17057, 48.61558 ], [ 21.17117, 48.61571 ], [ 21.17163, 48.61515 ], [ 21.17128, 48.61387 ], [ 21.17025, 48.61368 ], [ 21.17127, 48.61201 ], [ 21.16971, 48.61039 ], [ 21.1701, 48.60972 ], [ 21.16996, 48.60828 ], [ 21.17042, 48.60613 ], [ 21.17315, 48.6055 ], [ 21.17116, 48.6016 ], [ 21.17163, 48.60151 ], [ 21.17113, 48.59998 ], [ 21.17179, 48.59992 ], [ 21.17138, 48.59821 ], [ 21.17195, 48.5952 ], [ 21.17175, 48.59406 ], [ 21.17478, 48.59373 ], [ 21.17483, 48.59428 ], [ 21.17578, 48.59465 ], [ 21.17689, 48.59369 ], [ 21.17591, 48.59303 ], [ 21.17783, 48.59114 ], [ 21.17411, 48.58923 ], [ 21.18232, 48.58111 ], [ 21.22048, 48.56994 ], [ 21.24028, 48.57724 ], [ 21.23855, 48.57969 ], [ 21.23691, 48.5837 ], [ 21.23602, 48.5891 ], [ 21.23514, 48.58897 ], [ 21.23431, 48.59067 ], [ 21.23311, 48.59049 ], [ 21.23175, 48.59519 ], [ 21.23276, 48.59533 ], [ 21.22928, 48.60097 ], [ 21.22936, 48.60334 ], [ 21.22891, 48.60483 ], [ 21.22714, 48.60461 ], [ 21.22563, 48.60792 ], [ 21.22502, 48.6087 ], [ 21.22423, 48.6085 ], [ 21.22376, 48.60944 ], [ 21.22498, 48.60983 ], [ 21.22389, 48.61018 ], [ 21.22621, 48.61074 ], [ 21.22573, 48.61162 ], [ 21.22789, 48.61209 ], [ 21.22778, 48.61228 ], [ 21.22906, 48.61288 ], [ 21.22759, 48.61378 ], [ 21.22777, 48.61622 ], [ 21.22696, 48.61729 ], [ 21.23075, 48.61938 ], [ 21.22852, 48.62085 ], [ 21.21059, 48.63592 ], [ 21.21948, 48.63726 ], [ 21.21694, 48.64234 ], [ 21.2202, 48.6436 ], [ 21.22283, 48.64517 ], [ 21.22732, 48.64704 ], [ 21.2291, 48.64813 ], [ 21.23416, 48.64907 ], [ 21.23789, 48.64831 ], [ 21.24257, 48.64592 ], [ 21.24715, 48.64499 ], [ 21.25231, 48.64478 ], [ 21.2687, 48.64547 ], [ 21.269, 48.64545 ], [ 21.26883, 48.64447 ], [ 21.2846, 48.65119 ], [ 21.28601, 48.64966 ], [ 21.28736, 48.64708 ], [ 21.28815, 48.64686 ], [ 21.29583, 48.64933 ], [ 21.29911, 48.65007 ], [ 21.3189, 48.6509 ], [ 21.3175, 48.65185 ], [ 21.31724, 48.65266 ], [ 21.31786, 48.65281 ], [ 21.32138, 48.651 ], [ 21.32872, 48.65153 ], [ 21.33, 48.65141 ], [ 21.33024, 48.64862 ], [ 21.33119, 48.6475 ], [ 21.33298, 48.64654 ], [ 21.3393, 48.64609 ], [ 21.3431, 48.64423 ], [ 21.3459, 48.64347 ], [ 21.34779, 48.64353 ], [ 21.3527, 48.64464 ], [ 21.35413, 48.64425 ], [ 21.35814, 48.64162 ], [ 21.35798, 48.64563 ], [ 21.35623, 48.64831 ], [ 21.35494, 48.65312 ], [ 21.35521, 48.65729 ], [ 21.34935, 48.65906 ], [ 21.34897, 48.67059 ], [ 21.34986, 48.67409 ], [ 21.34657, 48.674 ], [ 21.34735, 48.675 ], [ 21.34696, 48.6757 ], [ 21.34549, 48.67584 ], [ 21.34415, 48.67666 ], [ 21.34218, 48.67663 ], [ 21.34175, 48.67704 ], [ 21.34236, 48.67833 ], [ 21.34062, 48.67929 ], [ 21.3406, 48.67997 ], [ 21.33964, 48.68072 ], [ 21.33903, 48.68071 ], [ 21.33849, 48.68216 ], [ 21.33712, 48.68278 ], [ 21.33579, 48.68284 ], [ 21.3352, 48.68315 ], [ 21.33456, 48.68421 ], [ 21.33343, 48.68456 ], [ 21.33226, 48.68599 ], [ 21.33066, 48.68715 ], [ 21.33062, 48.68853 ], [ 21.32888, 48.68923 ], [ 21.32973, 48.69259 ], [ 21.32957, 48.69433 ], [ 21.33024, 48.6954 ], [ 21.33018, 48.69592 ], [ 21.32968, 48.696 ], [ 21.33008, 48.70081 ], [ 21.32773, 48.70175 ], [ 21.3302, 48.70672 ], [ 21.32741, 48.70757 ], [ 21.32762, 48.70814 ], [ 21.32645, 48.70839 ], [ 21.32622, 48.7093 ], [ 21.32478, 48.71071 ], [ 21.32313, 48.71064 ], [ 21.3211, 48.71166 ], [ 21.31929, 48.71215 ], [ 21.3204, 48.71318 ], [ 21.31916, 48.71351 ], [ 21.31921, 48.71373 ], [ 21.32029, 48.71352 ], [ 21.32124, 48.71627 ], [ 21.32159, 48.71599 ], [ 21.32363, 48.71648 ], [ 21.3246, 48.71463 ], [ 21.32656, 48.71408 ], [ 21.32832, 48.71488 ], [ 21.32995, 48.71655 ], [ 21.3296, 48.71727 ], [ 21.32709, 48.7176 ], [ 21.32278, 48.71982 ], [ 21.32232, 48.71979 ], [ 21.32223, 48.72028 ], [ 21.32136, 48.72044 ], [ 21.32136, 48.72075 ], [ 21.32011, 48.72075 ], [ 21.32104, 48.7246 ], [ 21.32056, 48.72665 ], [ 21.32576, 48.72768 ], [ 21.32659, 48.72932 ], [ 21.32656, 48.73011 ], [ 21.32476, 48.73027 ], [ 21.32395, 48.73073 ], [ 21.32403, 48.73149 ], [ 21.32494, 48.73172 ], [ 21.32438, 48.73282 ], [ 21.32529, 48.73373 ], [ 21.32475, 48.73595 ], [ 21.32411, 48.7367 ], [ 21.32072, 48.73726 ], [ 21.318, 48.73847 ], [ 21.31609, 48.73894 ], [ 21.31346, 48.73892 ], [ 21.31507, 48.73956 ], [ 21.31707, 48.7413 ], [ 21.31729, 48.74294 ], [ 21.31684, 48.74289 ], [ 21.31635, 48.74398 ], [ 21.31713, 48.74498 ], [ 21.31536, 48.745 ], [ 21.31418, 48.74618 ], [ 21.31318, 48.7462 ], [ 21.31202, 48.74732 ], [ 21.31099, 48.74866 ], [ 21.31272, 48.74873 ], [ 21.3108, 48.75138 ], [ 21.30777, 48.75306 ], [ 21.30758, 48.75356 ], [ 21.30846, 48.7543 ], [ 21.30719, 48.75516 ], [ 21.30388, 48.76024 ], [ 21.3018, 48.76238 ], [ 21.30156, 48.76427 ], [ 21.30097, 48.76438 ], [ 21.3004, 48.76534 ], [ 21.30054, 48.7666 ], [ 21.29986, 48.76879 ], [ 21.30054, 48.76893 ], [ 21.30026, 48.76951 ], [ 21.30139, 48.77005 ], [ 21.3001, 48.77091 ], [ 21.30315, 48.77234 ], [ 21.30122, 48.77409 ], [ 21.3044, 48.77475 ], [ 21.30486, 48.7768 ], [ 21.30382, 48.77902 ], [ 21.30432, 48.77934 ], [ 21.30003, 48.78566 ], [ 21.2994, 48.78573 ], [ 21.2985, 48.78757 ], [ 21.29958, 48.78803 ], [ 21.29878, 48.78847 ], [ 21.29793, 48.79099 ], [ 21.29582, 48.7933 ], [ 21.29066, 48.79534 ], [ 21.28675, 48.7953 ], [ 21.28597, 48.7968 ], [ 21.28309, 48.79588 ], [ 21.28204, 48.79514 ], [ 21.27516, 48.79208 ], [ 21.27459, 48.79353 ], [ 21.27341, 48.79404 ], [ 21.27273, 48.79718 ], [ 21.27453, 48.80092 ], [ 21.27188, 48.80057 ], [ 21.27087, 48.79896 ], [ 21.27031, 48.79921 ], [ 21.26974, 48.79788 ], [ 21.26965, 48.79598 ], [ 21.27003, 48.7952 ], [ 21.27066, 48.79486 ], [ 21.26651, 48.79378 ], [ 21.26532, 48.79308 ], [ 21.26592, 48.79149 ], [ 21.26609, 48.78927 ], [ 21.26273, 48.78735 ], [ 21.26281, 48.78666 ], [ 21.26442, 48.78621 ], [ 21.26346, 48.78396 ], [ 21.26229, 48.78373 ], [ 21.26101, 48.78541 ], [ 21.26017, 48.78563 ], [ 21.25871, 48.78446 ], [ 21.25143, 48.78264 ], [ 21.25111, 48.78064 ], [ 21.25192, 48.78042 ], [ 21.25176, 48.77968 ], [ 21.24973, 48.78021 ], [ 21.24724, 48.78038 ], [ 21.2473, 48.77983 ], [ 21.2445, 48.7806 ], [ 21.24368, 48.77958 ], [ 21.24083, 48.77946 ], [ 21.24035, 48.77796 ], [ 21.24234, 48.77386 ], [ 21.2442, 48.77185 ], [ 21.24437, 48.77119 ], [ 21.24248, 48.77125 ], [ 21.24241, 48.77158 ], [ 21.24071, 48.77241 ], [ 21.23939, 48.7721 ], [ 21.23853, 48.77243 ], [ 21.23764, 48.77404 ], [ 21.23681, 48.77491 ], [ 21.23633, 48.77496 ], [ 21.23665, 48.77505 ], [ 21.23598, 48.77572 ], [ 21.23466, 48.77549 ], [ 21.23392, 48.77578 ], [ 21.23221, 48.77545 ], [ 21.23056, 48.77575 ], [ 21.22936, 48.7754 ], [ 21.22745, 48.77416 ], [ 21.22665, 48.7743 ], [ 21.22592, 48.77408 ], [ 21.22516, 48.77433 ], [ 21.22391, 48.77411 ], [ 21.22406, 48.77476 ], [ 21.2267, 48.77517 ], [ 21.22949, 48.77641 ], [ 21.22943, 48.77671 ], [ 21.2288, 48.77653 ], [ 21.22753, 48.77777 ], [ 21.22501, 48.77725 ], [ 21.22506, 48.77759 ], [ 21.22648, 48.77824 ], [ 21.22556, 48.77921 ], [ 21.22572, 48.77945 ], [ 21.22482, 48.77955 ], [ 21.22324, 48.78124 ], [ 21.2238, 48.7816 ], [ 21.2267, 48.78022 ], [ 21.22836, 48.78097 ], [ 21.22845, 48.78157 ], [ 21.22905, 48.78169 ], [ 21.22836, 48.78281 ], [ 21.22538, 48.78408 ], [ 21.22482, 48.78469 ], [ 21.22408, 48.7845 ], [ 21.22349, 48.7848 ], [ 21.22309, 48.78459 ], [ 21.22263, 48.78498 ], [ 21.22246, 48.78478 ], [ 21.22165, 48.78506 ], [ 21.22047, 48.78496 ], [ 21.21918, 48.78588 ], [ 21.21772, 48.78594 ], [ 21.21692, 48.78628 ], [ 21.21741, 48.78695 ], [ 21.21696, 48.78809 ], [ 21.21931, 48.78863 ], [ 21.21951, 48.78903 ], [ 21.21903, 48.78918 ], [ 21.21762, 48.78873 ], [ 21.21803, 48.78961 ], [ 21.21719, 48.78974 ], [ 21.21703, 48.79016 ], [ 21.21594, 48.78891 ], [ 21.21254, 48.79132 ], [ 21.20731, 48.79257 ], [ 21.20703, 48.79393 ], [ 21.20759, 48.79494 ], [ 21.20246, 48.79867 ], [ 21.19762, 48.7986 ], [ 21.19414, 48.79782 ], [ 21.18946, 48.79843 ], [ 21.18169, 48.80179 ], [ 21.18097, 48.80283 ], [ 21.18021, 48.80284 ], [ 21.17908, 48.80365 ], [ 21.17706, 48.80405 ], [ 21.17388, 48.80666 ], [ 21.17182, 48.8076 ], [ 21.17252, 48.80869 ], [ 21.17241, 48.81082 ], [ 21.17206, 48.81114 ], [ 21.17084, 48.81212 ], [ 21.16894, 48.81262 ], [ 21.16851, 48.81342 ], [ 21.16532, 48.81437 ], [ 21.16385, 48.81733 ], [ 21.16435, 48.81752 ], [ 21.16167, 48.82135 ], [ 21.15909, 48.82298 ], [ 21.1565, 48.8232 ], [ 21.15223, 48.82442 ], [ 21.14966, 48.82415 ], [ 21.14862, 48.82377 ], [ 21.14816, 48.82349 ], [ 21.14755, 48.82109 ], [ 21.14196, 48.81903 ], [ 21.14073, 48.8181 ], [ 21.13827, 48.81747 ], [ 21.13582, 48.81566 ], [ 21.13554, 48.81462 ], [ 21.13435, 48.81354 ], [ 21.13405, 48.81267 ], [ 21.13238, 48.81177 ], [ 21.13229, 48.81092 ], [ 21.13111, 48.81011 ], [ 21.13043, 48.80855 ], [ 21.1308, 48.80721 ], [ 21.13165, 48.80596 ], [ 21.13165, 48.80511 ], [ 21.13326, 48.80356 ], [ 21.13351, 48.80172 ], [ 21.1349, 48.79934 ], [ 21.13724, 48.7984 ], [ 21.13872, 48.79735 ], [ 21.13949, 48.79582 ], [ 21.13934, 48.79472 ], [ 21.14135, 48.7929 ], [ 21.14413, 48.78951 ], [ 21.14251, 48.78846 ], [ 21.14256, 48.78789 ], [ 21.14136, 48.78698 ], [ 21.14243, 48.78245 ], [ 21.1415, 48.78214 ], [ 21.14085, 48.78065 ], [ 21.13882, 48.78315 ], [ 21.13828, 48.78334 ], [ 21.13445, 48.78301 ], [ 21.13257, 48.78421 ], [ 21.1328, 48.78315 ], [ 21.13152, 48.78385 ], [ 21.13075, 48.78323 ], [ 21.12987, 48.78405 ], [ 21.12804, 48.78323 ], [ 21.12723, 48.78411 ], [ 21.1269, 48.78401 ], [ 21.12575, 48.78457 ], [ 21.12508, 48.78269 ], [ 21.1222, 48.78064 ], [ 21.12281, 48.77988 ], [ 21.12222, 48.77946 ], [ 21.12281, 48.77898 ], [ 21.12278, 48.77715 ], [ 21.12319, 48.77619 ], [ 21.1231, 48.77408 ], [ 21.12267, 48.77373 ], [ 21.12327, 48.77299 ], [ 21.12328, 48.7714 ], [ 21.12451, 48.76997 ], [ 21.12546, 48.7674 ], [ 21.125, 48.76686 ], [ 21.12585, 48.76632 ], [ 21.1257, 48.76603 ], [ 21.12353, 48.7654 ], [ 21.11989, 48.76334 ], [ 21.12212, 48.76062 ], [ 21.12358, 48.75977 ], [ 21.12642, 48.75908 ], [ 21.12715, 48.75827 ], [ 21.12845, 48.75748 ], [ 21.12924, 48.75737 ], [ 21.1314, 48.75565 ], [ 21.13402, 48.75578 ], [ 21.13494, 48.7562 ], [ 21.1362, 48.75582 ], [ 21.13817, 48.75705 ], [ 21.14068, 48.75434 ], [ 21.14028, 48.75347 ], [ 21.14232, 48.75243 ], [ 21.14379, 48.75113 ], [ 21.14813, 48.74908 ], [ 21.1495, 48.74795 ], [ 21.15124, 48.74738 ], [ 21.15562, 48.74362 ], [ 21.15649, 48.74205 ], [ 21.15779, 48.7419 ], [ 21.161, 48.73992 ], [ 21.16209, 48.73876 ], [ 21.16315, 48.73624 ], [ 21.16456, 48.73504 ], [ 21.16548, 48.7355 ], [ 21.16703, 48.73416 ], [ 21.16726, 48.73272 ], [ 21.16965, 48.73162 ], [ 21.1721, 48.73217 ], [ 21.17247, 48.73314 ], [ 21.17389, 48.7327 ], [ 21.17342, 48.73168 ], [ 21.17624, 48.7311 ], [ 21.17594, 48.73077 ], [ 21.17434, 48.73082 ], [ 21.17399, 48.73011 ], [ 21.17173, 48.73024 ], [ 21.17034, 48.72878 ], [ 21.17028, 48.7272 ], [ 21.16909, 48.72588 ], [ 21.16874, 48.72394 ], [ 21.16991, 48.72335 ], [ 21.17229, 48.7237 ], [ 21.17363, 48.72423 ], [ 21.17541, 48.72405 ], [ 21.17807, 48.72247 ], [ 21.17992, 48.72177 ], [ 21.18107, 48.72055 ], [ 21.18244, 48.72008 ], [ 21.18311, 48.7195 ], [ 21.18238, 48.71838 ], [ 21.18419, 48.71763 ], [ 21.18613, 48.71724 ], [ 21.18585, 48.71662 ], [ 21.18615, 48.71628 ], [ 21.18487, 48.71289 ], [ 21.1887, 48.70954 ], [ 21.18884, 48.70858 ], [ 21.19012, 48.70715 ], [ 21.19131, 48.70685 ], [ 21.19341, 48.70489 ], [ 21.19424, 48.70294 ], [ 21.19373, 48.70265 ], [ 21.1976, 48.69988 ], [ 21.19969, 48.69577 ], [ 21.19947, 48.69501 ], [ 21.19652, 48.69589 ], [ 21.1948, 48.69577 ], [ 21.193, 48.69693 ], [ 21.19003, 48.6972 ], [ 21.18733, 48.69822 ], [ 21.18205, 48.69738 ], [ 21.17967, 48.69774 ], [ 21.1784, 48.69714 ], [ 21.17996, 48.69559 ], [ 21.18195, 48.68923 ], [ 21.18042, 48.68504 ], [ 21.18072, 48.68153 ], [ 21.18125, 48.68022 ], [ 21.18044, 48.67648 ], [ 21.18121, 48.67532 ], [ 21.1815, 48.67232 ], [ 21.18245, 48.67037 ], [ 21.18192, 48.66781 ], [ 21.18093, 48.66663 ], [ 21.18047, 48.66483 ], [ 21.18034, 48.66343 ], [ 21.18101, 48.66204 ], [ 21.18102, 48.66086 ], [ 21.17841, 48.65816 ], [ 21.17789, 48.65693 ], [ 21.17554, 48.6554 ], [ 21.16073, 48.65526 ], [ 21.16076, 48.65573 ], [ 21.15247, 48.65674 ] ] ] } }
]
}
